{
    "links": {
        "self": "http://www.neowsapp.com/rest/v1/neo/54087665?api_key=iIulBulltgU6a56xZRHN4H3l9WmuAYTsLGpBGhQ2"
    },
    "id": "54087665",
    "neo_reference_id": "54087665",
    "name": "(2020 VD2)",
    "designation": "2020 VD2",
    "nasa_jpl_url": "http://ssd.jpl.nasa.gov/sbdb.cgi?sstr=54087665",
    "absolute_magnitude_h": 22.923,
    "estimated_diameter": {
        "kilometers": {
            "estimated_diameter_min": 0.0691759252,
            "estimated_diameter_max": 0.1546820712
        },
        "meters": {
            "estimated_diameter_min": 69.1759252385,
            "estimated_diameter_max": 154.6820712398
        },
        "miles": {
            "estimated_diameter_min": 0.0429839138,
            "estimated_diameter_max": 0.0961149533
        },
        "feet": {
            "estimated_diameter_min": 226.9551425596,
            "estimated_diameter_max": 507.4871266065
        }
    },
    "is_potentially_hazardous_asteroid": false,
    "close_approach_data": [
        {
            "close_approach_date": "2019-06-05",
            "close_approach_date_full": "2019-Jun-05 15:32",
            "epoch_date_close_approach": 1559748720000,
            "relative_velocity": {
                "kilometers_per_second": "31.9623523876",
                "kilometers_per_hour": "115064.468595477",
                "miles_per_hour": "71496.5860558951"
            },
            "miss_distance": {
                "astronomical": "0.0977057473",
                "lunar": "38.0075356997",
                "kilometers": "14616571.682838251",
                "miles": "9082316.4911038238"
            },
            "orbiting_body": "Venus"
        },
        {
            "close_approach_date": "2020-10-31",
            "close_approach_date_full": "2020-Oct-31 06:02",
            "epoch_date_close_approach": 1604124120000,
            "relative_velocity": {
                "kilometers_per_second": "21.9241628888",
                "kilometers_per_hour": "78926.9863996026",
                "miles_per_hour": "49042.1599659086"
            },
            "miss_distance": {
                "astronomical": "0.1390430952",
                "lunar": "54.0877640328",
                "kilometers": "20800550.880127224",
                "miles": "12924862.9830507312"
            },
            "orbiting_body": "Earth"
        }
    ],
    "orbital_data": {
        "orbit_id": "6",
        "orbit_determination_date": "2020-11-23 05:21:46",
        "first_observation_date": "2020-11-10",
        "last_observation_date": "2020-11-23",
        "data_arc_in_days": 13,
        "observations_used": 36,
        "orbit_uncertainty": "8",
        "minimum_orbit_intersection": ".0474092",
        "jupiter_tisserand_invariant": "4.917",
        "epoch_osculation": "2459169.5",
        "eccentricity": ".7227564726052338",
        "semi_major_axis": "1.217046573753825",
        "inclination": "16.14987679950159",
        "ascending_node_longitude": "51.45817577206623",
        "orbital_period": "490.4098945562165",
        "perihelion_distance": ".3374182851112248",
        "perihelion_argument": "224.8685134418012",
        "aphelion_distance": "2.096674862396424",
        "perihelion_time": "2459101.350157429060",
        "mean_anomaly": "50.02742317778834",
        "mean_motion": ".73407980547736",
        "equinox": "J2000",
        "orbit_class": {
            "orbit_class_type": "APO",
            "orbit_class_description": "Near-Earth asteroid orbits which cross the Earth’s orbit similar to that of 1862 Apollo",
            "orbit_class_range": "a (semi-major axis) > 1.0 AU; q (perihelion) < 1.017 AU"
        }
    },
    "is_sentry_object": false
}